STARLINK-31487          
1 59297U 24056B   26068.50519441  .00001010  00000+0  46196-4 0  9991
2 59297  43.0054 231.9648 0001821 256.8668 103.1981 15.27601209111241
2025-313BE              
1 67482U 25313BE  26068.69721505  .00077178  00000+0  26504-2 0  9996
2 67482  97.3989 145.3568 0007208 335.3714  24.7181 15.29801687  7972
