[{"OBJECT_NAME":"STARLINK-31487","OBJECT_ID":"2024-056B","EPOCH":"2026-03-09T12:07:28.797024","MEAN_MOTION":15.27601209,"ECCENTRICITY":0.00018212,"INCLINATION":43.0054,"RA_OF_ASC_NODE":231.9648,"ARG_OF_PERICENTER":256.8668,"MEAN_ANOMALY":103.1981,"EPHEMERIS_TYPE":0,"CLASSIFICATION_TYPE":"U","NORAD_CAT_ID":59297,"ELEMENT_SET_NO":999,"REV_AT_EPOCH":11124,"BSTAR":4.6195658e-5,"MEAN_MOTION_DOT":1.01e-5,"MEAN_MOTION_DDOT":0},{"OBJECT_NAME":"OBJECT BE","OBJECT_ID":"2025-313BE","EPOCH":"2026-03-09T16:43:59.380320","MEAN_MOTION":15.29801687,"ECCENTRICITY":0.00072083,"INCLINATION":97.3989,"RA_OF_ASC_NODE":145.3568,"ARG_OF_PERICENTER":335.3714,"MEAN_ANOMALY":24.7181,"EPHEMERIS_TYPE":0,"CLASSIFICATION_TYPE":"U","NORAD_CAT_ID":67482,"ELEMENT_SET_NO":999,"REV_AT_EPOCH":797,"BSTAR":0.0026504328,"MEAN_MOTION_DOT":0.00077178,"MEAN_MOTION_DDOT":0}]
